satname,norad_id,inclination_deg,eccentricity,mean_motion_rev_per_day,perigee_km,apogee_km,l1,l2
STARLINK-1184,45098,53.055,0.0002918,15.08411046,539.0358202603347,543.0738606184159,1 45098U 20006BG  26027.41570894  .00045827  00000+0  29123-2 0  9993,2 45098  53.0550  71.5832 0002918  19.3698 340.7402 15.08411046330802
STARLINK-1193,45100,53.0545,0.0001796,15.44377957,431.98311855817155,434.4297531203256,1 45100U 20006BJ  26027.91668981  .00142375  00000+0  29890-2 0  9994,2 45100  53.0545  65.8321 0001796  78.8540 131.7872 15.44377957  5730
STARLINK-1143,45179,53.0478,0.0001996,15.54365558,402.643787189194,405.35121528208765,1 45179U 20012B   26027.91668981  .00131692  00000+0  19493-2 0  9995,2 45179  53.0478 167.9547 0001996 232.5233 230.3151 15.54365558  5961
STARLINK-1202,45183,53.1548,0.0001666,15.29315689,476.7145263460088,478.9989434584777,1 45183U 20012F   26027.91668981  .00042145  00000+0  14663-2 0  9998,2 45183  53.1548 228.5847 0001666  81.0999 223.0938 15.29315689  5742
STARLINK-1216,45185,53.1531,0.0001782,15.29242993,476.85223308497734,479.2957866889001,1 45185U 20012H   26027.91668981  .00103436  00000+0  35595-2 0  9998,2 45185  53.1531 228.6033 0001782 107.7921 226.2061 15.29242993  5596
STARLINK-1225,45187,53.1365,0.0001334,15.2527746,489.0361979313202,490.8686041835208,1 45187U 20012K   26027.91668981  .01604151  00000+0  57094-1 0  9998,2 45187  53.1365 229.0070 0001334  77.0281 293.7669 15.25277460  5833
STARLINK-1230,45189,53.1318,0.0001323,15.24179199,492.34216260467565,494.1603319349024,1 45189U 20012M   26027.91668981  .01696681  00000+0  63018-1 0  9992,2 45189  53.1318 229.0412 0001323  73.9040 259.2357 15.24179199  5738
STARLINK-1234,45190,53.047,0.0010931,15.52753961,401.27077632583496,416.10813632465306,1 45190U 20012N   26027.77542975  .00068563  00000+0  10857-2 0  9997,2 45190  53.0470 163.8580 0010931 174.1048 186.0092 15.52753961329509
STARLINK-1269,45197,53.1359,0.000141,15.25005935,489.79909660323665,491.7361277038626,1 45197U 20012V   26027.91668981  .01504605  00000+0  54319-1 0  9999,2 45197  53.1359 228.9123 0001410  75.7480 267.8905 15.25005935  5623
STARLINK-1154,45198,53.0512,0.0002494,15.39333328,446.37706556666035,449.78198236881417,1 45198U 20012W   26027.22652558  .00023881  00000+0  61077-3 0  9999,2 45198  53.0512 206.8147 0002494 124.0188 236.1053 15.39333328328896
STARLINK-1199,45201,53.0533,0.0001608,15.06404543,546.0840405233812,548.3112281417816,1 45201U 20012Z   26027.53300162 -.00000961  00000+0 -45618-4 0  9999,2 45201  53.0533 211.3768 0001608  83.2522 276.8650 15.06404543328917
STARLINK-1209,45206,53.0471,0.001477,15.43284825,426.35733706079645,446.4875456505606,1 45206U 20012AE  26027.78640729  .00058250  00000+0  12836-2 0  9993,2 45206  53.0471 168.9017 0014770 153.7812 206.3944 15.43284825328583
STARLINK-1210,45207,53.0177,0.000796,15.86613833,306.4592502203586,317.1096051332197,1 45207U 20012AF  26027.91668981  .00232951  00000+0  87616-3 0  9990,2 45207  53.0177 109.2288 0007960 342.6438 209.2230 15.86613833  5923
STARLINK-1231,45212,53.0487,0.0001726,15.17842716,511.1724896095502,513.5510897917547,1 45212U 20012AL  26027.50102164  .00051833  00000+0  25270-2 0  9992,2 45212  53.0487 204.4451 0001726 134.8125 225.3010 15.17842716328966
STARLINK-1271,45217,53.0528,0.0001382,15.06393445,546.2745621948616,548.188734089209,1 45217U 20012AR  26026.52305269 -.00002786  00000+0 -16827-3 0  9993,2 45217  53.0528 215.9140 0001382  96.0376 264.0771 15.06393445328764
STARLINK-1191,45222,53.1588,0.0001203,15.3100042,472.0020299843627,473.6503717304895,1 45222U 20012AW  26027.91668981  .00070102  00000+0  22991-2 0  9999,2 45222  53.1588 188.3791 0001203  66.4805 229.0213 15.31000420  5672
STARLINK-1212,45223,53.0517,6.88e-05,15.41558358,441.0402738890407,441.97865724270196,1 45223U 20012AX  26027.91668981  .00089965  00000+0  20940-2 0  9999,2 45223  53.0517 184.5069 0000688 285.3973  19.1146 15.41558358  5766
STARLINK-1215,45225,53.1592,6.39e-05,15.29356129,477.2977843483495,478.17396490172723,1 45225U 20012AZ  26025.86996917 -.00004610  00000+0 -14753-3 0  9998,2 45225  53.1592 197.1508 0000639  64.6119 295.4948 15.29356129328929
STARLINK-1221,45227,53.0664,0.0002257,15.40268094,443.77737075877576,446.8574780859608,1 45227U 20012BB  26027.47183960  .00027002  00000+0  66822-3 0  9997,2 45227  53.0664 104.6947 0002257 236.1708 123.9081 15.40268094330357
STARLINK-1222,45228,53.0536,6.59e-05,15.4621357,427.3660571330274,428.263081549866,1 45228U 20012BC  26027.81582498  .00031640  00000+0  63962-3 0  9990,2 45228  53.0536 178.3129 0000659  92.8335 267.2746 15.46213570329299
STARLINK-1226,45229,53.1581,0.000131,15.31007098,471.90880542704235,473.7037525661399,1 45229U 20012BD  26027.91668981  .00069787  00000+0  22885-2 0  9995,2 45229  53.1581 188.1806 0001310  88.7421 115.1319 15.31007098  5688
STARLINK-1227,45230,53.1455,0.0001951,15.27795839,481.06438118623555,483.7413638444905,1 45230U 20012BE  26027.91668981  .01280971  00000+0  42526-1 0  9991,2 45230  53.1455 188.4723 0001951  85.9951 338.1506 15.27795839  5686
STARLINK-1246,45235,53.1361,0.000134,15.25191235,489.29089317936723,491.1316105108617,1 45235U 20012BK  26027.91668981  .00760103  00000+0  27744-1 0  9990,2 45235  53.1361 228.5120 0001340 103.9510 221.0508 15.25191235  5835
STARLINK-1270,45237,53.0495,0.0001717,15.40936659,442.17237551386916,444.5148719600611,1 45237U 20012BM  26027.91668981  .00071490  00000+0  17048-2 0  9993,2 45237  53.0495 181.3236 0001717 211.3547 123.9916 15.40936659  5837
STARLINK-1279,45360,53.0485,0.0007686,15.48761179,415.12364729611454,425.5742799193731,1 45360U 20019A   26027.06326705  .00109331  00000+0  19822-2 0  9996,2 45360  53.0485 299.3951 0007686  76.5853 283.6011 15.48761179324205
STARLINK-1301,45361,53.0467,0.0010216,15.54762826,395.9147042555969,409.7696008601033,1 45361U 20019B   26027.91668981  .00080037  00000+0  11757-2 0  9996,2 45361  53.0467 302.6874 0010216  70.8805 308.9454 15.54762826  5862
STARLINK-1262,45366,53.0558,0.000141,15.06406098,546.2163969981375,548.169340021057,1 45366U 20019G   26027.15888394  .00006399  00000+0  44805-3 0  9999,2 45366  53.0558 353.0572 0001410 102.5482 257.5665 15.06406098323479
STARLINK-1273,45367,53.0638,0.0001153,15.32709263,466.9437569453021,468.52241458707977,1 45367U 20019H   26027.91668981  .01108760  00000+0  31590-1 0  9993,2 45367  53.0638 347.9472 0001153  91.1617 101.5748 15.32709263  5732
STARLINK-1276,45368,53.0556,0.0001609,15.06410351,546.0655503171929,548.2941172743085,1 45368U 20019J   26027.21785203  .00006940  00000+0  48418-3 0  9999,2 45368  53.0556 352.7937 0001609  89.5439 270.5734 15.06410351323486
STARLINK-1277,45369,53.0552,7.13e-05,15.4260651,437.93394004843594,438.9059810710123,1 45369U 20019K   26027.91668981  .00127226  00000+0  28418-2 0  9998,2 45369  53.0552 346.9001 0000713  66.1821  97.7737 15.42606510  5732
STARLINK-1281,45370,53.0555,0.0001694,15.0639784,546.045022867932,548.3913332022512,1 45370U 20019L   26027.60488236  .00001594  00000+0  12587-3 0  9999,2 45370  53.0555 351.0565 0001694  92.9775 267.1407 15.06397840323545
STARLINK-1300,45374,53.0565,0.0001606,15.06400126,546.0989608500668,548.3233826828382,1 45374U 20019Q   26027.16256399  .00001565  00000+0  12395-3 0  9992,2 45374  53.0565 353.0421 0001606  80.0619 280.0552 15.06400126323470
STARLINK-1302,45375,53.0552,0.0001194,15.4091578,442.5907509557528,444.219735243405,1 45375U 20019R   26027.91668981  .01251854  00000+0  27515-1 0  9997,2 45375  53.0552 346.3798 0001194 107.6579 186.5784 15.40915780  5831
STARLINK-1304,45376,53.0551,0.000495,15.41897359,437.134622059657,443.8850824433857,1 45376U 20019S   26027.91668981  .00057280  00000+0  13270-2 0  9998,2 45376  53.0551 343.5939 0004950  86.5478  87.3028 15.41897359  5755
STARLINK-1305,45377,53.0504,0.0006681,15.44902094,427.1161355115628,436.21539396580647,1 45377U 20019T   26027.15576331  .00044122  00000+0  92714-3 0  9994,2 45377  53.0504 331.2397 0006681  28.5626 331.5744 15.44902094323781
STARLINK-1319,45379,53.0524,0.000649,15.50571088,410.64878112489805,419.466347669485,1 45379U 20019V   26027.91668981  .00100942  00000+0  17200-2 0  9992,2 45379  53.0524 327.1554 0006490  56.3080 116.9378 15.50571088  5793
STARLINK-1266,45383,53.0539,0.0001261,15.40532969,443.6749257153979,445.3956036605523,1 45383U 20019Z   26027.91668981  .00029713  00000+0  72772-3 0  9999,2 45383  53.0539 326.4685 0001261 107.6381 289.5899 15.40532969  5683
STARLINK-1267,45384,53.056,0.0008002,15.42117768,434.4043667120459,445.3158893157197,1 45384U 20019AA  26027.11724232  .00094498  00000+0  21552-2 0  9995,2 45384  53.0560 325.2781 0008002  85.5876 274.6043 15.42117768323851
STARLINK-1272,45386,53.049,0.0007049,15.47935637,417.9719624771551,427.55987541228296,1 45386U 20019AC  26027.91668981  .00066864  00000+0  12579-2 0  9998,2 45386  53.0490 306.0775 0007049  60.9862 340.7725 15.47935637  5843
STARLINK-1274,45387,53.0324,0.000987,15.41144663,435.99763022007755,449.46202133416136,1 45387U 20019AD  26027.75423495  .00045419  00000+0  10812-2 0  9991,2 45387  53.0324 297.7511 0009870  96.0455 264.1674 15.41144663324296
STARLINK-1280,45388,53.0502,0.0006901,15.56340917,393.58115815672954,402.9339379119265,1 45388U 20019AE  26027.91668981  .00111853  00000+0  15433-2 0  9991,2 45388  53.0502 321.4726 0006901  59.4296 187.4156 15.56340917  5863
STARLINK-1283,45389,53.0502,0.0012386,15.47665656,415.13223583550007,431.98139175102824,1 45389U 20019AF  26027.91668981  .00050721  00000+0  96533-3 0  9999,2 45389  53.0502 306.2239 0012386  91.2904  50.0590 15.47665656  5944
STARLINK-1284,45390,53.0546,0.0001908,15.44400098,431.84174408564286,434.4409278986577,1 45390U 20019AG  26027.91668981  .00106005  00000+0  22366-2 0  9990,2 45390  53.0546 326.0643 0001908  90.6810 132.4659 15.44400098  5732
